2026-052D               
1 68201U 26052D   26081.24695183  .00008339  00000+0  51183-3 0  9990
2 68201  97.5373 157.4019 0010517 242.3661 117.6501 15.10316032   922
2026-052E               
1 68202U 26052E   26081.24693631  .00008211  00000+0  50402-3 0  9999
2 68202  97.5375 157.4029 0010439 247.3538 112.6588 15.10317863   920
2026-052F               
1 68203U 26052F   26081.24593355  .00008261  00000+0  50365-3 0  9995
2 68203  97.5366 157.4109 0009673 238.5685 121.4599 15.10571536   922
2026-052G               
1 68204U 26052G   26081.24573360  .00007909  00000+0  48182-3 0  9992
2 68204  97.5373 157.4041 0009243 242.0245 118.0049 15.10618627   926
KZ-11 R/B               
1 68205U 26052H   26081.28889340  .00037781  19256-5  56073-3 0  9993
2 68205  97.3419 157.2629 0548283 353.2282   6.1719 14.66823490   909
2026-052J               
1 68206U 26052J   26081.28824436  .00063950  23371-5  93646-3 0  9996
2 68206  97.3420 157.2631 0547170 353.3036   6.1058 14.67207976   909
TEN-KOH 2               
1 68261U 25241B   26081.09030258  .00012051  00000+0  52456-3 0  9994
2 68261  51.6360  13.8982 0004453 198.8295 161.2518 15.22607530  1630
PROGRESS-MS 33          
1 68319U 26058A   26081.80143998  .00155125  21460-4  28078-3 0  9991
2 68319  51.6361   8.2209 0011697 151.7216 208.4431 16.01056080    20
SL-4 R/B                
1 68320U 26058B   26081.79916291  .01134033  12081-4  28376-3 0  9991
2 68320  51.6529   8.2812 0023871  70.6142 289.7457 16.27373014    52
