[{"OBJECT_NAME":"2026-052D","OBJECT_ID":"2026-052D","EPOCH":"2026-03-22T05:55:36.638112","MEAN_MOTION":15.10316032,"ECCENTRICITY":0.00105173,"INCLINATION":97.5373,"RA_OF_ASC_NODE":157.4019,"ARG_OF_PERICENTER":242.3661,"MEAN_ANOMALY":117.6501,"EPHEMERIS_TYPE":0,"CLASSIFICATION_TYPE":"U","NORAD_CAT_ID":68201,"ELEMENT_SET_NO":999,"REV_AT_EPOCH":92,"BSTAR":0.00051182536,"MEAN_MOTION_DOT":8.339e-5,"MEAN_MOTION_DDOT":0},{"OBJECT_NAME":"2026-052E","OBJECT_ID":"2026-052E","EPOCH":"2026-03-22T05:55:35.297184","MEAN_MOTION":15.10317863,"ECCENTRICITY":0.0010439,"INCLINATION":97.5375,"RA_OF_ASC_NODE":157.4029,"ARG_OF_PERICENTER":247.3538,"MEAN_ANOMALY":112.6588,"EPHEMERIS_TYPE":0,"CLASSIFICATION_TYPE":"U","NORAD_CAT_ID":68202,"ELEMENT_SET_NO":999,"REV_AT_EPOCH":92,"BSTAR":0.00050401731,"MEAN_MOTION_DOT":8.211e-5,"MEAN_MOTION_DDOT":0},{"OBJECT_NAME":"2026-052F","OBJECT_ID":"2026-052F","EPOCH":"2026-03-22T05:54:08.658720","MEAN_MOTION":15.10571536,"ECCENTRICITY":0.00096733,"INCLINATION":97.5366,"RA_OF_ASC_NODE":157.4109,"ARG_OF_PERICENTER":238.5685,"MEAN_ANOMALY":121.4599,"EPHEMERIS_TYPE":0,"CLASSIFICATION_TYPE":"U","NORAD_CAT_ID":68203,"ELEMENT_SET_NO":999,"REV_AT_EPOCH":92,"BSTAR":0.00050364689,"MEAN_MOTION_DOT":8.261e-5,"MEAN_MOTION_DDOT":0},{"OBJECT_NAME":"2026-052G","OBJECT_ID":"2026-052G","EPOCH":"2026-03-22T05:53:51.383040","MEAN_MOTION":15.10618627,"ECCENTRICITY":0.00092432,"INCLINATION":97.5373,"RA_OF_ASC_NODE":157.4041,"ARG_OF_PERICENTER":242.0245,"MEAN_ANOMALY":118.0049,"EPHEMERIS_TYPE":0,"CLASSIFICATION_TYPE":"U","NORAD_CAT_ID":68204,"ELEMENT_SET_NO":999,"REV_AT_EPOCH":92,"BSTAR":0.00048182197,"MEAN_MOTION_DOT":7.909e-5,"MEAN_MOTION_DDOT":0},{"OBJECT_NAME":"KZ-11 R/B","OBJECT_ID":"2026-052H","EPOCH":"2026-03-22T06:56:00.389760","MEAN_MOTION":14.6682349,"ECCENTRICITY":0.05482836,"INCLINATION":97.3419,"RA_OF_ASC_NODE":157.2629,"ARG_OF_PERICENTER":353.2282,"MEAN_ANOMALY":6.1719,"EPHEMERIS_TYPE":0,"CLASSIFICATION_TYPE":"U","NORAD_CAT_ID":68205,"ELEMENT_SET_NO":999,"REV_AT_EPOCH":90,"BSTAR":0.0005607318,"MEAN_MOTION_DOT":0.00037781,"MEAN_MOTION_DDOT":1.925584e-6},{"OBJECT_NAME":"2026-052J","OBJECT_ID":"2026-052J","EPOCH":"2026-03-22T06:55:04.312704","MEAN_MOTION":14.67207976,"ECCENTRICITY":0.05471708,"INCLINATION":97.342,"RA_OF_ASC_NODE":157.2631,"ARG_OF_PERICENTER":353.3036,"MEAN_ANOMALY":6.1058,"EPHEMERIS_TYPE":0,"CLASSIFICATION_TYPE":"U","NORAD_CAT_ID":68206,"ELEMENT_SET_NO":999,"REV_AT_EPOCH":90,"BSTAR":0.00093645816,"MEAN_MOTION_DOT":0.0006395,"MEAN_MOTION_DDOT":2.337147e-6},{"OBJECT_NAME":"TEN-KOH 2","OBJECT_ID":"2025-241B","EPOCH":"2026-03-22T02:10:02.142912","MEAN_MOTION":15.2260753,"ECCENTRICITY":0.0004453,"INCLINATION":51.636,"RA_OF_ASC_NODE":13.8982,"ARG_OF_PERICENTER":198.8295,"MEAN_ANOMALY":161.2518,"EPHEMERIS_TYPE":0,"CLASSIFICATION_TYPE":"U","NORAD_CAT_ID":68261,"ELEMENT_SET_NO":999,"REV_AT_EPOCH":163,"BSTAR":0.00052456411,"MEAN_MOTION_DOT":0.00012051,"MEAN_MOTION_DDOT":0},{"OBJECT_NAME":"PROGRESS-MS 33","OBJECT_ID":"2026-058A","EPOCH":"2026-03-22T19:14:04.414272","MEAN_MOTION":16.0105608,"ECCENTRICITY":0.0011697,"INCLINATION":51.6361,"RA_OF_ASC_NODE":8.2209,"ARG_OF_PERICENTER":151.7216,"MEAN_ANOMALY":208.4431,"EPHEMERIS_TYPE":0,"CLASSIFICATION_TYPE":"U","NORAD_CAT_ID":68319,"ELEMENT_SET_NO":999,"REV_AT_EPOCH":2,"BSTAR":0.00028078,"MEAN_MOTION_DOT":0.00155125,"MEAN_MOTION_DDOT":2.146e-5},{"OBJECT_NAME":"SL-4 R/B","OBJECT_ID":"2026-058B","EPOCH":"2026-03-22T19:10:47.675424","MEAN_MOTION":16.27373014,"ECCENTRICITY":0.0023871,"INCLINATION":51.6529,"RA_OF_ASC_NODE":8.2812,"ARG_OF_PERICENTER":70.6142,"MEAN_ANOMALY":289.7457,"EPHEMERIS_TYPE":0,"CLASSIFICATION_TYPE":"U","NORAD_CAT_ID":68320,"ELEMENT_SET_NO":999,"REV_AT_EPOCH":5,"BSTAR":0.00028376,"MEAN_MOTION_DOT":0.01134033,"MEAN_MOTION_DDOT":1.2081e-5}]
